SL-8 R/B                
1 11574U 79089B   26062.50315272  .00000315  00000+0  10315-3 0  9993
2 11574  74.0674 102.4970 0017130 275.8018  84.1185 14.42345805435212
SL-14 R/B               
1 11672U 80005B   26062.21758370  .00000733  00000+0  71597-4 0  9994
2 11672  82.5156 313.3749 0015605 179.4244 180.6996 14.90921266475526
SL-8 R/B                
1 12139U 81003B   26062.11247286  .00020716  00000+0  53549-3 0  9999
2 12139  82.9392 296.1055 0262721 201.4811 157.5238 15.10673845313688
SL-3 R/B                
1 12465U 81046B   26062.42468865  .00013827  00000+0  32342-3 0  9993
2 12465  81.2311 297.2671 0020087  43.4451 316.8370 15.41797273437466
SL-3 R/B                
1 12904U 81103B   26062.45815215  .00007270  00000+0  32346-3 0  9992
2 12904  81.1570 220.7417 0012540 309.3797  50.6323 15.21280948972280
SL-3 R/B                
1 13068U 82013B   26062.46884767  .00005906  00000+0  25635-3 0  9991
2 13068  81.1770 168.0597 0022314 198.6138 161.4281 15.21937775403409
SL-3 R/B                
1 13154U 82039B   26062.49438001  .00003337  00000+0  20174-3 0  9993
2 13154  81.1579 223.1043 0029887 344.6304  15.4010 15.10035811380704
SL-3 R/B                
1 13403U 82079B   26062.43245999  .00008292  00000+0  33151-3 0  9994
2 13403  81.1473 200.4637 0024831 185.9195 174.1749 15.24683913376747
SL-14 R/B               
1 13553U 82092B   26062.31719419  .00000625  00000+0  67463-4 0  9991
2 13553  82.5703 147.3590 0019429 325.9165  97.7173 14.86658717327985
SL-3 R/B                
1 13819U 83010B   26062.28954009  .00019262  00000+0  39033-3 0  9997
2 13819  81.1059  10.0905 0018467  71.2910 289.0337 15.46076306356957
SL-3 R/B                
1 14208U 83075B   26062.50756514  .00013395  00000+0  35545-3 0  9992
2 14208  97.6131  66.8512 0019721 250.0981 109.8138 15.38234128329200
COSMOS 1536             
1 14699U 84013A   26062.41575257  .00007777  00000+0  32172-3 0  9992
2 14699  82.5438 114.0872 0012831 308.1308  51.8771 15.23725902271669
SL-14 R/B               
1 14820U 84027B   26062.49809254  .00000617  00000+0  67775-4 0  9992
2 14820  82.5381 250.8214 0017899 358.9546   1.1629 14.85968731246711
SL-8 R/B                
1 15483U 85006B   26062.06646240  .00000191  00000+0  72060-4 0  9993
2 15483  74.0434 273.3369 0018721 192.6546 324.5251 14.37777951153079
SL-12 R/B(2)            
1 15772U 85042D   26062.51311539  .00000174  00000+0  99652-4 0  9991
2 15772  71.1065 100.7793 0033511 138.2593 330.7992 14.21980466113510
SL-14 R/B               
1 15945U 85069B   26062.41743232  .00000701  00000+0  76429-4 0  9993
2 15945  82.5272  30.8304 0017926 209.0624 150.9597 14.86424279171909
SL-16 R/B               
1 16182U 85097B   26062.49403292 -.00000004  00000+0  22121-4 0  9992
2 16182  71.0037 153.5970 0009957 267.0668 173.3862 14.16599655 86356
